*******************************************************************************
Ephemeris / WWW_USER Tue Mar 11 05:35:19 2025 Pasadena, USA      / Horizons    
*******************************************************************************
Target body name: (2018 YU2)                      {source: JPL#5}
Center body name: Earth (399)                     {source: DE441}
Center-site name: Gemini South Obs., Cerro Pachon
*******************************************************************************
Start time      : A.D. 2018-Aug-02 22:19:00.0000 UT      
Stop  time      : A.D. 2018-Aug-03 11:18:00.0000 UT      
Step-size       : 1 minutes
*******************************************************************************
Target pole/equ : undefined
Target radii    : undefined                                                    
Center geodetic : 289.2634, -30.2406227, 2.71233  {E-lon(deg),Lat(deg),Alt(km)}
Center cylindric: 289.2634,5517.21435,-3194.81213 {E-lon(deg),Dxy(km),Dz(km)}
Center pole/equ : ITRF93                          {East-longitude positive}
Center radii    : 6378.137, 6378.137, 6356.752 km {Equator_a, b, pole_c}       
Target primary  : Sun
Vis. interferer : MOON (R_eq= 1737.400) km        {source: DE441}
Rel. light bend : Sun                             {source: DE441}
Rel. lght bnd GM: 1.3271E+11 km^3/s^2                                          
Small-body perts: Yes                             {source: SB441-N16}
Atmos refraction: NO (AIRLESS)
RA format       : HMS
Time format     : CAL 
Calendar mode   : Mixed Julian/Gregorian
RTS-only print  : NO       
EOP file        : eop.250310.p250606                                           
EOP coverage    : DATA-BASED 1962-JAN-20 TO 2025-MAR-10. PREDICTS-> 2025-JUN-05
Units conversion: 1 au= 149597870.700 km, c= 299792.458 km/s, 1 day= 86400.0 s 
Table cut-offs 1: Elevation (-90.0deg=NO ),Airmass (>38.000=NO), Daylight (YES)
Table cut-offs 2: Solar elongation (  0.0,180.0=NO ),Local Hour Angle( 0.0=NO )
Table cut-offs 3: RA/DEC angular rate (     0.0=NO )                           
*******************************************************************************
Initial IAU76/J2000 heliocentric ecliptic osculating elements (au, days, deg.):
  EPOCH=  2458477.5 ! 2018-Dec-25.00 (TDB)         Residual RMS= .22887        
   EC= .1533598773405833   QR= .920984914841031    TP= 2458549.1486254167      
   OM= 279.4515303175068   W=  253.4059234937716   IN= 2.850769624588425       
  Equivalent ICRF heliocentric cartesian coordinates (au, au/d):
   X=-6.842297687009524E-02  Y= 9.429126817220428E-01  Z= 4.143187104036840E-01
  VX=-1.695115058702848E-02 VY=-2.997207899955317E-03 VZ=-2.239432528215744E-03
Asteroid physical parameters (km, seconds, rotational period in hours):        
   GM= n.a.                RAD= n.a.               ROTPER= n.a.                
   H= 26.5                 G= .150                 B-V= n.a.                   
                           ALBEDO= n.a.            STYP= n.a.                  
*******************************************************************************
 Date__(UT)__HR:MN     R.A._________(ICRF)_________DEC
******************************************************
$$SOE
 2018-Aug-02 22:19 C   02 30 14.666699 +19 24 59.27557
 2018-Aug-02 22:20 C   02 30 14.772465 +19 24 59.89580
 2018-Aug-02 22:21 C   02 30 14.878232 +19 25 00.51609
 2018-Aug-02 22:22 C   02 30 14.983999 +19 25 01.13644
 2018-Aug-02 22:23 C   02 30 15.089767 +19 25 01.75685
 2018-Aug-02 22:24 C   02 30 15.195535 +19 25 02.37732
 2018-Aug-02 22:25 C   02 30 15.301303 +19 25 02.99785
 2018-Aug-02 22:26 C   02 30 15.407072 +19 25 03.61845
 2018-Aug-02 22:27 C   02 30 15.512841 +19 25 04.23911
 2018-Aug-02 22:28 C   02 30 15.618610 +19 25 04.85982
 2018-Aug-02 22:29 C   02 30 15.724379 +19 25 05.48060
 2018-Aug-02 22:30 C   02 30 15.830148 +19 25 06.10144
 2018-Aug-02 22:31 C   02 30 15.935917 +19 25 06.72234
 2018-Aug-02 22:32 C   02 30 16.041686 +19 25 07.34330
 2018-Aug-02 22:33 C   02 30 16.147455 +19 25 07.96432
 2018-Aug-02 22:34 C   02 30 16.253223 +19 25 08.58540
 2018-Aug-02 22:35 C   02 30 16.358992 +19 25 09.20655
 2018-Aug-02 22:36 N   02 30 16.464760 +19 25 09.82775
 2018-Aug-02 22:37 N   02 30 16.570527 +19 25 10.44902
 2018-Aug-02 22:38 N   02 30 16.676294 +19 25 11.07034
 2018-Aug-02 22:39 N   02 30 16.782061 +19 25 11.69173
 2018-Aug-02 22:40 N   02 30 16.887827 +19 25 12.31318
 2018-Aug-02 22:41 N   02 30 16.993593 +19 25 12.93469
 2018-Aug-02 22:42 N   02 30 17.099358 +19 25 13.55626
 2018-Aug-02 22:43 N   02 30 17.205122 +19 25 14.17789
 2018-Aug-02 22:44 N   02 30 17.310885 +19 25 14.79958
 2018-Aug-02 22:45 N   02 30 17.416648 +19 25 15.42134
 2018-Aug-02 22:46 N   02 30 17.522409 +19 25 16.04315
 2018-Aug-02 22:47 N   02 30 17.628170 +19 25 16.66503
 2018-Aug-02 22:48 N   02 30 17.733929 +19 25 17.28696
 2018-Aug-02 22:49 N   02 30 17.839687 +19 25 17.90896
 2018-Aug-02 22:50 N   02 30 17.945445 +19 25 18.53102
 2018-Aug-02 22:51 N   02 30 18.051201 +19 25 19.15313
 2018-Aug-02 22:52 N   02 30 18.156956 +19 25 19.77531
 2018-Aug-02 22:53 N   02 30 18.262709 +19 25 20.39755
 2018-Aug-02 22:54 N   02 30 18.368461 +19 25 21.01985
 2018-Aug-02 22:55 N   02 30 18.474212 +19 25 21.64221
 2018-Aug-02 22:56 N   02 30 18.579961 +19 25 22.26464
 2018-Aug-02 22:57 N   02 30 18.685708 +19 25 22.88712
 2018-Aug-02 22:58 N   02 30 18.791454 +19 25 23.50966
 2018-Aug-02 22:59 N   02 30 18.897198 +19 25 24.13226
 2018-Aug-02 23:00 N   02 30 19.002941 +19 25 24.75493
 2018-Aug-02 23:01 N   02 30 19.108682 +19 25 25.37765
 2018-Aug-02 23:02 N   02 30 19.214420 +19 25 26.00044
 2018-Aug-02 23:03 N   02 30 19.320157 +19 25 26.62328
 2018-Aug-02 23:04 N   02 30 19.425892 +19 25 27.24619
 2018-Aug-02 23:05 A   02 30 19.531625 +19 25 27.86915
 2018-Aug-02 23:06 A   02 30 19.637356 +19 25 28.49218
 2018-Aug-02 23:07 A   02 30 19.743085 +19 25 29.11526
 2018-Aug-02 23:08 A   02 30 19.848811 +19 25 29.73841
 2018-Aug-02 23:09 A   02 30 19.954535 +19 25 30.36162
 2018-Aug-02 23:10 A   02 30 20.060257 +19 25 30.98488
 2018-Aug-02 23:11 A   02 30 20.165976 +19 25 31.60821
 2018-Aug-02 23:12 A   02 30 20.271693 +19 25 32.23160
 2018-Aug-02 23:13 A   02 30 20.377408 +19 25 32.85504
 2018-Aug-02 23:14 A   02 30 20.483120 +19 25 33.47855
 2018-Aug-02 23:15 A   02 30 20.588829 +19 25 34.10211
 2018-Aug-02 23:16 A   02 30 20.694536 +19 25 34.72574
 2018-Aug-02 23:17 A   02 30 20.800240 +19 25 35.34943
 2018-Aug-02 23:18 A   02 30 20.905941 +19 25 35.97317
 2018-Aug-02 23:19 A   02 30 21.011639 +19 25 36.59698
 2018-Aug-02 23:20 A   02 30 21.117334 +19 25 37.22084
 2018-Aug-02 23:21 A   02 30 21.223027 +19 25 37.84476
 2018-Aug-02 23:22 A   02 30 21.328716 +19 25 38.46875
 2018-Aug-02 23:23 A   02 30 21.434402 +19 25 39.09279
 2018-Aug-02 23:24 A   02 30 21.540085 +19 25 39.71689
 2018-Aug-02 23:25 A   02 30 21.645765 +19 25 40.34105
 2018-Aug-02 23:26 A   02 30 21.751442 +19 25 40.96527
 2018-Aug-02 23:27 A   02 30 21.857115 +19 25 41.58955
 2018-Aug-02 23:28 A   02 30 21.962785 +19 25 42.21389
 2018-Aug-02 23:29 A   02 30 22.068452 +19 25 42.83829
 2018-Aug-02 23:30 A   02 30 22.174115 +19 25 43.46274
 2018-Aug-02 23:31 A   02 30 22.279774 +19 25 44.08726
 2018-Aug-02 23:32 A   02 30 22.385430 +19 25 44.71183
 2018-Aug-02 23:33 A   02 30 22.491082 +19 25 45.33646
 2018-Aug-02 23:34     02 30 22.596731 +19 25 45.96115
 2018-Aug-02 23:35     02 30 22.702376 +19 25 46.58590
 2018-Aug-02 23:36     02 30 22.808017 +19 25 47.21071
 2018-Aug-02 23:37     02 30 22.913654 +19 25 47.83558
 2018-Aug-02 23:38     02 30 23.019287 +19 25 48.46050
 2018-Aug-02 23:39     02 30 23.124916 +19 25 49.08548
 2018-Aug-02 23:40     02 30 23.230541 +19 25 49.71052
 2018-Aug-02 23:41     02 30 23.336162 +19 25 50.33562
 2018-Aug-02 23:42     02 30 23.441779 +19 25 50.96078
 2018-Aug-02 23:43     02 30 23.547391 +19 25 51.58599
 2018-Aug-02 23:44     02 30 23.652999 +19 25 52.21127
 2018-Aug-02 23:45     02 30 23.758603 +19 25 52.83660
 2018-Aug-02 23:46     02 30 23.864203 +19 25 53.46198
 2018-Aug-02 23:47     02 30 23.969798 +19 25 54.08743
 2018-Aug-02 23:48     02 30 24.075388 +19 25 54.71293
 2018-Aug-02 23:49     02 30 24.180974 +19 25 55.33849
 2018-Aug-02 23:50     02 30 24.286556 +19 25 55.96411
 2018-Aug-02 23:51     02 30 24.392133 +19 25 56.58978
 2018-Aug-02 23:52     02 30 24.497705 +19 25 57.21551
 2018-Aug-02 23:53     02 30 24.603272 +19 25 57.84130
 2018-Aug-02 23:54     02 30 24.708834 +19 25 58.46715
 2018-Aug-02 23:55     02 30 24.814392 +19 25 59.09305
 2018-Aug-02 23:56     02 30 24.919944 +19 25 59.71900
 2018-Aug-02 23:57     02 30 25.025492 +19 26 00.34502
 2018-Aug-02 23:58     02 30 25.131034 +19 26 00.97109
 2018-Aug-02 23:59     02 30 25.236571 +19 26 01.59722
 2018-Aug-03 00:00     02 30 25.342104 +19 26 02.22340
 2018-Aug-03 00:01     02 30 25.447630 +19 26 02.84964
 2018-Aug-03 00:02     02 30 25.553152 +19 26 03.47594
 2018-Aug-03 00:03     02 30 25.658668 +19 26 04.10229
 2018-Aug-03 00:04     02 30 25.764179 +19 26 04.72869
 2018-Aug-03 00:05     02 30 25.869685 +19 26 05.35516
 2018-Aug-03 00:06     02 30 25.975185 +19 26 05.98168
 2018-Aug-03 00:07     02 30 26.080679 +19 26 06.60825
 2018-Aug-03 00:08     02 30 26.186168 +19 26 07.23488
 2018-Aug-03 00:09     02 30 26.291651 +19 26 07.86156
 2018-Aug-03 00:10     02 30 26.397129 +19 26 08.48830
 2018-Aug-03 00:11     02 30 26.502600 +19 26 09.11510
 2018-Aug-03 00:12     02 30 26.608066 +19 26 09.74194
 2018-Aug-03 00:13     02 30 26.713526 +19 26 10.36885
 2018-Aug-03 00:14     02 30 26.818980 +19 26 10.99581
 2018-Aug-03 00:15     02 30 26.924429 +19 26 11.62282
 2018-Aug-03 00:16     02 30 27.029871 +19 26 12.24989
 2018-Aug-03 00:17     02 30 27.135307 +19 26 12.87701
 2018-Aug-03 00:18     02 30 27.240736 +19 26 13.50418
 2018-Aug-03 00:19     02 30 27.346160 +19 26 14.13141
 2018-Aug-03 00:20     02 30 27.451577 +19 26 14.75870
 2018-Aug-03 00:21     02 30 27.556988 +19 26 15.38603
